SHIJIAN-20 (SJ-20)      
1 44910U 19097A   26201.84103699  .00000132  00000+0  00000+0 0  9999
2 44910   5.0023  74.6500 0015580  57.9055 153.5938  1.00272475 24033
TJS-5                   
1 44978U 20002A   26201.63128227 -.00000343  00000+0  00000+0 0  9997
2 44978   0.0784  79.4557 0008137 337.0777 216.6301  1.00271413 24041
GSAT-30                 
1 45026U 20005A   26201.84860428 -.00000165  00000+0  00000+0 0  9996
2 45026   0.0402 246.2604 0003345 205.1757 235.6855  1.00272947 23844
EUTELSAT KONNECT        
1 45027U 20005B   26201.83357433  .00000050  00000+0  00000+0 0  9995
2 45027   0.0683  94.4381 0002070 133.2983  18.1514  1.00275283 24671
JCSAT-17                
1 45245U 20013A   26201.85909101 -.00000315  00000+0  00000+0 0  9998
2 45245   5.3922 357.1892 0003241 131.1155 255.6120  1.00272858 23576
GEO-KOMPSAT-2B          
1 45246U 20013B   26201.85761765 -.00000344  00000+0  00000+0 0  9993
2 45246   0.0442 232.2123 0000396 314.5058 188.9054  1.00272410 23616
BEIDOU-3 G2             
1 45344U 20017A   26201.84799763 -.00000142  00000+0  00000+0 0  9990
2 45344   2.9312  47.8234 0001934  57.6013 218.4937  1.00272499 23593
AEHF-6 (USA 298)        
1 45465U 20022B   26201.85952433 -.00000297  00000+0  00000+0 0  9997
2 45465   2.4756 301.5995 0041788  15.5009  68.6974  1.00269798 23355
BEIDOU-3 G3             
1 45807U 20040A   26201.78278745 -.00000356  00000+0  00000+0 0  9992
2 45807   2.5281  67.5038 0002275 312.4615 310.9241  1.00273948 22403
APSTAR-6D               
1 45863U 20045A   26201.28845595 -.00000319  00000+0  00000+0 0  9996
2 45863   0.0351  81.0310 0002428  26.1518  68.7522  1.00271961 22190
KOREASAT 116            
1 45920U 20048A   26201.81503262 -.00000362  00000+0  00000+0 0  9992
2 45920   0.0182  17.5301 0001017 101.3334 229.3107  1.00274006 21977
EXPRESS 103             
1 45985U 20053A   26199.28506116 -.00000288  00000+0  00000+0 0  9994
2 45985   0.0409 240.7231 0000475 187.7051  66.7797  1.00272468 21960
EXPRESS 80              
1 45986U 20053B   26200.95073978 -.00000138  00000+0  00000+0 0  9991
2 45986   0.0099 314.0589 0001002 321.6913  84.2218  1.00269934 21967
BSAT-4B                 
1 46112U 20056A   26201.76017132 -.00000350  00000+0  00000+0 0  9992
2 46112   0.0439 220.9070 0004555 270.2059 190.8922  1.00270277 21725
MEV-2                   
1 46113U 20056B   26201.83201433 -.00000011  00000+0  00000+0 0  9994
2 46113   0.0550 255.2491 0000181 301.0996  40.7723  1.00272527 81056
GALAXY 30 (G-30)        
1 46114U 20056C   26201.66482605  .00000036  00000+0  00000+0 0  9994
2 46114   0.0184  58.7653 0002159  56.9350 297.0671  1.00270661 21626
GAOFEN-13 01            
1 46610U 20071A   26201.53308740 -.00000364  00000+0  00000+0 0  9990
2 46610   0.4819  86.0878 0044446 119.9125  42.4375  1.00275684 21256
TIANTONG-1 2            
1 46916U 20082A   26201.50046972 -.00000356  00000+0  00000+0 0  9995
2 46916   0.7518 332.5690 0001337 135.7755 135.0399  1.00271587 20984
LUCAS (JDRS-1)          
1 47202U 20089A   26201.85016428 -.00000236  00000+0  00000+0 0  9999
2 47202   0.0612 268.0559 0001985 189.6153 237.7955  1.00272969 20755
SXM-7                   
1 47240U 20096A   26201.81520094 -.00000206  00000+0  00000+0 0  9991
2 47240   0.0221 102.3649 0003691  10.9352  33.5997  1.00272132  7784
CMS-01                  
1 47256U 20099A   26201.84860428 -.00000165  00000+0  00000+0 0  9996
2 47256   0.0184  71.8332 0003432 196.9694  58.3090  1.00272861 20531
TURKSAT 5A              
1 47306U 21001A   26201.84489259  .00000154  00000+0  00000+0 0  9992
2 47306   0.0159  76.4638 0000086 357.2201 199.9990  1.00271477 20305
TIANTONG-1 3            
1 47321U 21003A   26201.84834429 -.00000153  00000+0  00000+0 0  9994
2 47321   1.7316 341.4345 0003196 143.0559 201.0276  1.00269933 20291
TJS-6                   
1 47613U 21010A   26201.79622086  .00000043  00000+0  00000+0 0  9991
2 47613   0.1644 261.1627 0003169 238.2447 264.3020  1.00274581 20144
SBIRS GEO-5 (USA 315)   
1 48618U 21042A   26201.77949411 -.00000266  00000+0  00000+0 0  9992
2 48618   5.0617 329.3799 0001674 151.9892 191.5963  1.00271729 19107
FENGYUN 4B              
1 48808U 21047A   26201.85293765 -.00000331  00000+0  00000+0 0  9994
2 48808   0.2344  80.2811 0006847 274.0428 355.9704  1.00277287 18900
SXM-8                   
1 48838U 21049A   26201.81537426 -.00000206  00000+0  00000+0 0  9991
2 48838   0.0146  46.1480 0005996 346.9759 113.8474  1.00273023 18925
TIANLIAN 1-05           
1 49011U 21063A   26201.62151877  .00000106  00000+0  00000+0 0  9990
2 49011   1.6781  80.4238 0001234  85.7551  12.7930  1.00269993 18411
STAR ONE D2             
1 49055U 21069A   26201.60435869  .00000000  00000+0  00000+0 0  9991
2 49055   0.0080  22.2948 0002523 119.2807 304.3072  1.00269715 18278
EUTELSAT QUANTUM        
1 49056U 21069B   26201.84164367  .00000126  00000+0  00000+0 0  9999
2 49056   0.0124  44.5070 0002250  66.9717 177.8240  1.00274456 18263
ZHONGXING-2E            
1 49062U 21071A   26201.85163764 -.00000292  00000+0  00000+0 0  9995
2 49062   0.0438 234.2647 0001236 265.2275 203.7927  1.00272112 18372
TJS-7                   
1 49115U 21077A   26201.59863868 -.00000125  00000+0  00000+0 0  9998
2 49115   0.2700 263.6798 0003000 115.7468  34.9460  1.00273146  9882
